BEIDOU-3 M13 (C32)      
1 43622U 18072A   25327.34499792 -.00000028  00000+0  00000+0 0  9990
2 43622  56.4424  69.4628 0005235 299.1411  60.8090  1.86230935 48823
BEIDOU-3 M14 (C33)      
1 43623U 18072B   25327.74742281 -.00000025  00000+0  00000+0 0  9996
2 43623  56.4446  69.4434 0002849 340.5341  19.4593  1.86230944 48822
BEIDOU-3 M16 (C35)      
1 43647U 18078A   25326.29466836 -.00000059  00000+0  00000+0 0  9993
2 43647  54.2808 307.2361 0006761  17.6776 342.3362  1.86232396 48307
BEIDOU-3 M15 (C34)      
1 43648U 18078B   25328.03472358 -.00000048  00000+0  00000+0 0  9992
2 43648  54.2750 307.1763 0003402  16.0748 343.9300  1.86232249 48351
BEIDOU-3 G1 (C59)       
1 43683U 18085A   25328.18378602 -.00000257  00000+0  00000+0 0  9994
2 43683   2.5583 103.5613 0001822  48.9526 117.1072  1.00267897 26002
BEIDOU-3 M17 (C36)      
1 43706U 18093A   25327.40804882  .00000067  00000+0  00000+0 0  9995
2 43706  54.1726 189.2786 0006560 305.7528 248.0001  1.86228448 47701
BEIDOU-3 M18 (C37)      
1 43707U 18093B   25324.83261001  .00000077  00000+0  00000+0 0  9991
2 43707  54.1734 189.3579 0006538 348.6313  11.4598  1.86226757 47653
BEIDOU-3 IGSO-1 (C38)   
1 44204U 19023A   25323.59378135 -.00000226  00000+0  00000+0 0  9994
2 44204  58.4003  39.8168 0026966 221.2202 126.9723  1.00252177  5102
BEIDOU-2 G8 (C01)       
1 44231U 19027A   25328.18456603 -.00000226  00000+0  00000+0 0  9995
2 44231   1.6121  74.6647 0007740 257.6348 302.1101  1.00274112 24028
BEIDOU-3 IGSO-2 (C39)   
1 44337U 19035A   25326.93794828 -.00000052  00000+0  00000+0 0  9993
2 44337  55.2208 160.6762 0037417 202.0112 156.6214  1.00277615 23596
BEIDOU-3 M24 (C46)      
1 44542U 19061A   25327.05177770  .00000068  00000+0  00000+0 0  9991
2 44542  54.4002 189.6810 0009532  22.2342 337.9072  1.86229431 41959
BEIDOU-3 M23 (C45)      
1 44543U 19061B   25325.34758516  .00000075  00000+0  00000+0 0  9993
2 44543  54.3986 189.7068 0006028  18.6962 191.7037  1.86229672 41921
BEIDOU-3 IGSO-3 (C40)   
1 44709U 19073A   25324.29956875 -.00000206  00000+0  00000+0 0  9998
2 44709  55.1630 283.1590 0044538 191.5856 168.2409  1.00250097 22360
