[
    {
        "OBJECT_NAME": "BEIDOU-3 M13",
        "OBJECT_ID": "2018-072A",
        "EPOCH": "2025-11-23T08:16:47.820288",
        "MEAN_MOTION": 1.86230935,
        "ECCENTRICITY": 0.0005235,
        "INCLINATION": 56.4424,
        "RA_OF_ASC_NODE": 69.4628,
        "ARG_OF_PERICENTER": 299.1411,
        "MEAN_ANOMALY": 60.809,
        "EPHEMERIS_TYPE": 0,
        "CLASSIFICATION_TYPE": "U",
        "NORAD_CAT_ID": 43622,
        "ELEMENT_SET_NO": 999,
        "REV_AT_EPOCH": 4882,
        "BSTAR": 0,
        "MEAN_MOTION_DOT": -2.8e-07,
        "MEAN_MOTION_DDOT": 0
    },
    {
        "OBJECT_NAME": "BEIDOU-3 M14",
        "OBJECT_ID": "2018-072B",
        "EPOCH": "2025-11-23T17:56:17.330784",
        "MEAN_MOTION": 1.86230944,
        "ECCENTRICITY": 0.0002849,
        "INCLINATION": 56.4446,
        "RA_OF_ASC_NODE": 69.4434,
        "ARG_OF_PERICENTER": 340.5341,
        "MEAN_ANOMALY": 19.4593,
        "EPHEMERIS_TYPE": 0,
        "CLASSIFICATION_TYPE": "U",
        "NORAD_CAT_ID": 43623,
        "ELEMENT_SET_NO": 999,
        "REV_AT_EPOCH": 4882,
        "BSTAR": 0,
        "MEAN_MOTION_DOT": -2.5e-07,
        "MEAN_MOTION_DDOT": 0
    },
    {
        "OBJECT_NAME": "BEIDOU-3 M16",
        "OBJECT_ID": "2018-078A",
        "EPOCH": "2025-11-22T07:04:19.346304",
        "MEAN_MOTION": 1.86232396,
        "ECCENTRICITY": 0.0006761,
        "INCLINATION": 54.2808,
        "RA_OF_ASC_NODE": 307.2361,
        "ARG_OF_PERICENTER": 17.6776,
        "MEAN_ANOMALY": 342.3362,
        "EPHEMERIS_TYPE": 0,
        "CLASSIFICATION_TYPE": "U",
        "NORAD_CAT_ID": 43647,
        "ELEMENT_SET_NO": 999,
        "REV_AT_EPOCH": 4830,
        "BSTAR": 0,
        "MEAN_MOTION_DOT": -5.9e-07,
        "MEAN_MOTION_DDOT": 0
    },
    {
        "OBJECT_NAME": "BEIDOU-3 M15",
        "OBJECT_ID": "2018-078B",
        "EPOCH": "2025-11-24T00:50:00.117312",
        "MEAN_MOTION": 1.86232249,
        "ECCENTRICITY": 0.0003402,
        "INCLINATION": 54.275,
        "RA_OF_ASC_NODE": 307.1763,
        "ARG_OF_PERICENTER": 16.0748,
        "MEAN_ANOMALY": 343.93,
        "EPHEMERIS_TYPE": 0,
        "CLASSIFICATION_TYPE": "U",
        "NORAD_CAT_ID": 43648,
        "ELEMENT_SET_NO": 999,
        "REV_AT_EPOCH": 4835,
        "BSTAR": 0,
        "MEAN_MOTION_DOT": -4.8e-07,
        "MEAN_MOTION_DDOT": 0
    },
    {
        "OBJECT_NAME": "BEIDOU-3 G1",
        "OBJECT_ID": "2018-085A",
        "EPOCH": "2025-11-24T04:24:39.112128",
        "MEAN_MOTION": 1.00267897,
        "ECCENTRICITY": 0.0001822,
        "INCLINATION": 2.5583,
        "RA_OF_ASC_NODE": 103.5613,
        "ARG_OF_PERICENTER": 48.9526,
        "MEAN_ANOMALY": 117.1072,
        "EPHEMERIS_TYPE": 0,
        "CLASSIFICATION_TYPE": "U",
        "NORAD_CAT_ID": 43683,
        "ELEMENT_SET_NO": 999,
        "REV_AT_EPOCH": 2600,
        "BSTAR": 0,
        "MEAN_MOTION_DOT": -2.57e-06,
        "MEAN_MOTION_DDOT": 0
    },
    {
        "OBJECT_NAME": "BEIDOU-3 M17",
        "OBJECT_ID": "2018-093A",
        "EPOCH": "2025-11-23T09:47:35.418048",
        "MEAN_MOTION": 1.86228448,
        "ECCENTRICITY": 0.000656,
        "INCLINATION": 54.1726,
        "RA_OF_ASC_NODE": 189.2786,
        "ARG_OF_PERICENTER": 305.7528,
        "MEAN_ANOMALY": 248.0001,
        "EPHEMERIS_TYPE": 0,
        "CLASSIFICATION_TYPE": "U",
        "NORAD_CAT_ID": 43706,
        "ELEMENT_SET_NO": 999,
        "REV_AT_EPOCH": 4770,
        "BSTAR": 0,
        "MEAN_MOTION_DOT": 6.7e-07,
        "MEAN_MOTION_DDOT": 0
    },
    {
        "OBJECT_NAME": "BEIDOU-3 M18",
        "OBJECT_ID": "2018-093B",
        "EPOCH": "2025-11-20T19:58:57.504864",
        "MEAN_MOTION": 1.86226757,
        "ECCENTRICITY": 0.00065383,
        "INCLINATION": 54.1734,
        "RA_OF_ASC_NODE": 189.3579,
        "ARG_OF_PERICENTER": 348.6313,
        "MEAN_ANOMALY": 11.4598,
        "EPHEMERIS_TYPE": 0,
        "CLASSIFICATION_TYPE": "U",
        "NORAD_CAT_ID": 43707,
        "ELEMENT_SET_NO": 999,
        "REV_AT_EPOCH": 4765,
        "BSTAR": 0,
        "MEAN_MOTION_DOT": 7.7e-07,
        "MEAN_MOTION_DDOT": 0
    },
    {
        "OBJECT_NAME": "BEIDOU-3 IGSO-1",
        "OBJECT_ID": "2019-023A",
        "EPOCH": "2025-11-19T14:15:02.708640",
        "MEAN_MOTION": 1.00252177,
        "ECCENTRICITY": 0.0026966,
        "INCLINATION": 58.4003,
        "RA_OF_ASC_NODE": 39.8168,
        "ARG_OF_PERICENTER": 221.2202,
        "MEAN_ANOMALY": 126.9723,
        "EPHEMERIS_TYPE": 0,
        "CLASSIFICATION_TYPE": "U",
        "NORAD_CAT_ID": 44204,
        "ELEMENT_SET_NO": 999,
        "REV_AT_EPOCH": 510,
        "BSTAR": 0,
        "MEAN_MOTION_DOT": -2.26e-06,
        "MEAN_MOTION_DDOT": 0
    },
    {
        "OBJECT_NAME": "BEIDOU-2 G8",
        "OBJECT_ID": "2019-027A",
        "EPOCH": "2025-11-24T04:25:46.504992",
        "MEAN_MOTION": 1.00274112,
        "ECCENTRICITY": 0.000774,
        "INCLINATION": 1.6121,
        "RA_OF_ASC_NODE": 74.6647,
        "ARG_OF_PERICENTER": 257.6348,
        "MEAN_ANOMALY": 302.1101,
        "EPHEMERIS_TYPE": 0,
        "CLASSIFICATION_TYPE": "U",
        "NORAD_CAT_ID": 44231,
        "ELEMENT_SET_NO": 999,
        "REV_AT_EPOCH": 2402,
        "BSTAR": 0,
        "MEAN_MOTION_DOT": -2.26e-06,
        "MEAN_MOTION_DDOT": 0
    },
    {
        "OBJECT_NAME": "BEIDOU-3 IGSO-2",
        "OBJECT_ID": "2019-035A",
        "EPOCH": "2025-11-22T22:30:38.731392",
        "MEAN_MOTION": 1.00277615,
        "ECCENTRICITY": 0.00374174,
        "INCLINATION": 55.2208,
        "RA_OF_ASC_NODE": 160.6762,
        "ARG_OF_PERICENTER": 202.0112,
        "MEAN_ANOMALY": 156.6214,
        "EPHEMERIS_TYPE": 0,
        "CLASSIFICATION_TYPE": "U",
        "NORAD_CAT_ID": 44337,
        "ELEMENT_SET_NO": 999,
        "REV_AT_EPOCH": 2359,
        "BSTAR": 0,
        "MEAN_MOTION_DOT": -5.2e-07,
        "MEAN_MOTION_DDOT": 0
    },
    {
        "OBJECT_NAME": "BEIDOU-3 M24",
        "OBJECT_ID": "2019-061A",
        "EPOCH": "2025-11-23T01:14:33.593280",
        "MEAN_MOTION": 1.86229431,
        "ECCENTRICITY": 0.00095322,
        "INCLINATION": 54.4002,
        "RA_OF_ASC_NODE": 189.681,
        "ARG_OF_PERICENTER": 22.2342,
        "MEAN_ANOMALY": 337.9072,
        "EPHEMERIS_TYPE": 0,
        "CLASSIFICATION_TYPE": "U",
        "NORAD_CAT_ID": 44542,
        "ELEMENT_SET_NO": 999,
        "REV_AT_EPOCH": 4195,
        "BSTAR": 0,
        "MEAN_MOTION_DOT": 6.8e-07,
        "MEAN_MOTION_DDOT": 0
    },
    {
        "OBJECT_NAME": "BEIDOU-3 M23",
        "OBJECT_ID": "2019-061B",
        "EPOCH": "2025-11-21T08:20:31.357824",
        "MEAN_MOTION": 1.86229672,
        "ECCENTRICITY": 0.00060282,
        "INCLINATION": 54.3986,
        "RA_OF_ASC_NODE": 189.7068,
        "ARG_OF_PERICENTER": 18.6962,
        "MEAN_ANOMALY": 191.7037,
        "EPHEMERIS_TYPE": 0,
        "CLASSIFICATION_TYPE": "U",
        "NORAD_CAT_ID": 44543,
        "ELEMENT_SET_NO": 999,
        "REV_AT_EPOCH": 4192,
        "BSTAR": 0,
        "MEAN_MOTION_DOT": 7.5e-07,
        "MEAN_MOTION_DDOT": 0
    },
    {
        "OBJECT_NAME": "BEIDOU-3 IGSO-3",
        "OBJECT_ID": "2019-073A",
        "EPOCH": "2025-11-20T07:11:22.740000",
        "MEAN_MOTION": 1.00250097,
        "ECCENTRICITY": 0.0044538,
        "INCLINATION": 55.163,
        "RA_OF_ASC_NODE": 283.159,
        "ARG_OF_PERICENTER": 191.5856,
        "MEAN_ANOMALY": 168.2409,
        "EPHEMERIS_TYPE": 0,
        "CLASSIFICATION_TYPE": "U",
        "NORAD_CAT_ID": 44709,
        "ELEMENT_SET_NO": 999,
        "REV_AT_EPOCH": 2236,
        "BSTAR": 0,
        "MEAN_MOTION_DOT": -2.06e-06,
        "MEAN_MOTION_DDOT": 0
    }
]